AMGU-1 (AMURSAT)        
1 44394U 19038J   22047.85488544  .00007004  00000+0  37582-3 0  9994
2 44394  97.6170  16.9833 0020003 185.4546 174.6471 15.15100853144765
DOT-1                   
1 44399U 19038P   22048.18952669  .00004081  00000+0  22919-3 0  9990
2 44399  97.6251  16.4697 0023438 189.4401 170.6393 15.13668069144745
SOKRAT                  
1 44404U 19038U   22048.49479636  .00005347  00000+0  28890-3 0  9999
2 44404  97.6212  17.3270 0020687 184.0872 176.0194 15.14953597144846
LUCKY-7                 
1 44406U 19038W   22048.42594851  .00003328  00000+0  18579-3 0  9991
2 44406  97.6246  17.0092 0023498 180.6016 179.5191 15.14019336144792
D-STAR ONE (EXOCONNECT) 
1 44410U 19038AA  22047.89290726  .00007506  00000+0  38761-3 0  9997
2 44410  97.6169  17.2844 0020069 181.9777 178.1380 15.16426774144804
NARSSCUBE-2             
1 44415U 19022E   22048.49036768  .00005951  00000+0  19725-3 0  9997
2 44415  51.6423 337.4957 0010451 348.1488  11.9246 15.32645940141701
DUCHIFAT-3              
1 44854U 19089C   22048.46822021  .00002919  00000+0  23544-3 0  9994
2 44854  36.9673  91.1302 0008678 321.6011  38.4096 15.00151431119901
OPS-SAT                 
1 44878U 19092F   22048.03462715  .00005140  00000+0  25591-3 0  9990
2 44878  97.4760 233.2199 0014222  43.6525 316.5831 15.17947267119918
FLORIPASAT-1            
1 44885U 19093G   22048.43736053  .00001672  00000+0  21381-3 0  9991
2 44885  97.9061 130.3421 0013745 218.9921 141.0291 14.82653255117063
HUSKYSAT-1 (HO-107)     
1 45119U 19071J   22048.06855302  .00014305  00000+0  37017-3 0  9996
2 45119  51.6400 288.4365 0010743  99.3417 260.8783 15.39273007114795
G-SAT                   
1 45597U 98067RK  22048.34320815  .00126412  00000+0  77950-3 0  9998
2 45597  51.6349 169.9447 0001537 299.0995  60.9851 15.76261175102934
QUETZAL-1               
1 45598U 98067RL  22048.47360583  .00695274  23616-3  11910-2 0  9991
2 45598  51.6290 157.1619 0008590 341.0554  19.0135 16.01817573103046
BY70-2                  
1 45857U 20042B   22048.46852522  .00005680  00000+0  78981-3 0  9991
2 45857  97.9648 126.5849 0012225 140.5096 219.6973 14.78171937 87725
SALSAT                  
1 46495U 20068K   22047.82369966  .00001629  00000+0  12248-3 0  9995
2 46495  97.7198 349.2373 0015764 331.9722  28.0653 15.03899376 76055
NETSAT-4                
1 46504U 20068U   22047.80994680  .00002389  00000+0  18351-3 0  9996
2 46504  97.7140 347.9951 0013649  24.5350 335.6521 15.02653643 75922
NETSAT-3                
1 46505U 20068V   22047.88890659  .00002638  00000+0  20238-3 0  9990
2 46505  97.7140 348.0115 0011991  33.0127 327.1831 15.02624199 75948
NETSAT-1                
1 46506U 20068W   22047.83500174  .00003149  00000+0  24103-3 0  9999
2 46506  97.7100 347.8986 0009735  38.2702 321.9212 15.02578981 75938
NETSAT-2                
1 46507U 20068X   22047.77572515  .00003489  00000+0  26676-3 0  9995
2 46507  97.7094 347.8355 0009168  42.5505 317.6431 15.02553697 75875
BY70-3                  
1 46839U 20079N   22048.44500435  .00013834  00000+0  38382-3 0  9994
2 46839  97.2146 122.5064 0007785  54.2753  75.8028 15.36998796 71780
SPOC                    
1 46921U 98067RR  22048.11984560  .00060185  00000+0  59500-3 0  9993
2 46921  51.6369 188.8024 0002564 295.1819  64.8910 15.65283252 73004
BOBCAT-1                
1 46922U 98067RS  22047.90410472  .00137411  00000+0  83230-3 0  9990
2 46922  51.6363 180.6291 0004639 310.7501  49.3096 15.76618198 73064
NEUTRON-1               
1 46923U 98067RT  22048.09087371  .00056218  00000+0  55907-3 0  9995
2 46923  51.6376 189.3642 0002547 300.6653  59.4091 15.65163345 73027
DESCENT                 
1 46927U 98067RX  22048.08601929  .00059828  00000+0  58863-3 0  9993
2 46927  51.6376 189.3303 0002857 312.9073  47.1682 15.65405815 72931
UVSQ-SAT                
1 47438U 21006AB  22047.73256523  .00003539  00000+0  19726-3 0  9990
2 47438  97.4552 109.2577 0011746 340.5604  19.5178 15.14181367 59004
SOMP2B                  
1 47445U 21006AJ  22047.71023273  .00003957  00000+0  22145-3 0  9993
2 47445  97.4525 108.9929 0011466 345.1767  14.9127 15.13964611 58999
WARP-01                 
1 47924U 98067SA  22047.70101349  .00094517  00000+0  84103-3 0  9990
2 47924  51.6350 197.2127 0005477 297.7754  62.2686 15.67699328 52857
RSP-01                  
1 47925U 98067SB  22047.85248788  .00059848  00000+0  63844-3 0  9993
2 47925  51.6382 199.0182 0002445 261.0614  99.0104 15.63358768 52821
TAUSAT-1                
1 47926U 98067SC  22047.67840962  .00095668  00000+0  83709-3 0  9998
2 47926  51.6381 196.3282 0003404 267.5394  92.5213 15.68117134 52839
TSURU                   
1 47927U 98067SD  22047.88606903  .00051522  00000+0  58491-3 0  9998
2 47927  51.6373 199.9866 0002216 253.7714 106.3036 15.61822455 52818
STARS-EC                
1 47928U 98067SE  22048.41640183  .00131136  00000+0  10599-2 0  9993
2 47928  51.6364 193.0043 0006439 305.4936  54.5460 15.69884403 52930
MAYA-2                  
1 47929U 98067SF  22047.88210716  .00052163  00000+0  59273-3 0  9994
2 47929  51.6376 199.9589 0002204 251.1360 108.9395 15.61793521 52773
HIROGARI (OPUSAT-II)    
1 47930U 98067SG  22048.42575263  .00129312  00000+0  99676-3 0  9990
2 47930  51.6353 191.5734 0003687 287.1676  72.8918 15.71044846 52977
GUARANISAT-1            
1 47931U 98067SH  22047.93965567  .00052993  00000+0  59956-3 0  9993
2 47931  51.6388 199.6045 0002240 250.9770 109.0982 15.61898695 52823
DIY-1 (ARDUIQUBE)       
1 47963U 21022AH  22048.25319744  .00009493  00000+0  59065-3 0  9999
2 47963  97.5444 311.3047 0018003 180.8095 179.3109 15.09691816 48790
